 {"id": "958c0ce2-f688-4c97-8e7c-22b8317d1760", "latitud": "4.58787", "longitud": "-75", "temperature": "25", "pressure": "1,011", "localTime": "Wed Nov 29 2023 11:39:50 GMT-0500 (hora est\u00e1ndar de Colombia)", "julianTime": "1701275990", "utcTime": "11:40:01 AM", "altitude": "480.42", "elevation": "-58.8", "TLE": {"Norad_Id": 56205, "International_Classification": "Unclassified", "International_Designation": "23054AD", "Epoch_Time_(ISO)": "2023-11-29T11:24:57Z", "First_Derivative_Mean_Motion": 0.00025355000000000006, "Second_Derivative_Mean_Motion": 0.0, "Inclination": 97.3873, "Right_Ascension_of_the_Ascending_Node": 226.8184, "Eccentricity": 0.0014559, "Argument_of_Perigee": 138.4503, "Mean_Anomaly": 221.7846, "Mean_Motion": 15.282887, "Revolution_Number_at_Epoch": 3539}}, {"id": "157aaca2-d2d6-4df5-b29a-08f1fe6fb228", "latitud": "4.58787", "longitud": "-45.3", "temperature": "28", "pressure": "1,009", "localTime": "Wed Nov 29 2023 11:43:30 GMT-0500 (hora est\u00e1ndar de Colombia)", "julianTime": "1701276210", "utcTime": "11:43:43 AM", "altitude": "476.97", "elevation": "-65.6", "TLE": {"Norad_Id": 56205, "International_Classification": "Unclassified", "International_Designation": "23054AD", "Epoch_Time_(ISO)": "2023-11-29T11:24:57Z", "First_Derivative_Mean_Motion": 0.00025355000000000006, "Second_Derivative_Mean_Motion": 0.0, "Inclination": 97.3873, "Right_Ascension_of_the_Ascending_Node": 226.8184, "Eccentricity": 0.0014559, "Argument_of_Perigee": 138.4503, "Mean_Anomaly": 221.7846, "Mean_Motion": 15.282887, "Revolution_Number_at_Epoch": 3539}}, {"id": "000e76f3-f496-40a1-9eec-0b8eda28b677", "latitud": "4.58787", "longitud": "-45.3", "temperature": "28", "pressure": "1,009", "localTime": "Wed Nov 29 2023 11:48:01 GMT-0500 (hora est\u00e1ndar de Colombia)", "julianTime": "1701276481", "utcTime": "11:48:12 AM", "altitude": "474.45", "elevation": "-73.3", "TLE": {"Norad_Id": 56205, "International_Classification": "Unclassified", "International_Designation": "23054AD", "Epoch_Time_(ISO)": "2023-11-29T11:24:57Z", "First_Derivative_Mean_Motion": 0.00025355000000000006, "Second_Derivative_Mean_Motion": 0.0, "Inclination": 97.3873, "Right_Ascension_of_the_Ascending_Node": 226.8184, "Eccentricity": 0.0014559, "Argument_of_Perigee": 138.4503, "Mean_Anomaly": 221.7846, "Mean_Motion": 15.282887, "Revolution_Number_at_Epoch": 3539}}, {"id": "d8017064-ebfc-4226-bc20-1058d031a589", "latitud": "7.5454", "longitud": "-73.5478", "temperature": "32", "pressure": "1,007", "localTime": "Wed Nov 29 2023 11:53:33 GMT-0500 (hora est\u00e1ndar de Colombia)", "julianTime": "1701276813", "utcTime": "11:53:45 AM", "altitude": "475.90", "elevation": "-78.8", "TLE": {"Norad_Id": 56205, "International_Classification": "Unclassified", "International_Designation": "23054AD", "Epoch_Time_(ISO)": "2023-11-29T11:24:57Z", "First_Derivative_Mean_Motion": 0.00025355000000000006, "Second_Derivative_Mean_Motion": 0.0, "Inclination": 97.3873, "Right_Ascension_of_the_Ascending_Node": 226.8184, "Eccentricity": 0.0014559, "Argument_of_Perigee": 138.4503, "Mean_Anomaly": 221.7846, "Mean_Motion": 15.282887, "Revolution_Number_at_Epoch": 3539}}, {"id": "53faaad0-8d51-4ea6-8065-290649f023a3", "latitud": "4.58787", "longitud": "-45.3", "temperature": "28", "pressure": "1,009", "localTime": "Wed Nov 29 2023 13:22:39 GMT-0500 (hora est\u00e1ndar de Colombia)", "julianTime": "1701282159", "utcTime": "1:22:50 PM", "altitude": "474.40", "elevation": "-65.3", "TLE": {"Norad_Id": 56205, "International_Classification": "Unclassified", "International_Designation": "23054AD", "Epoch_Time_(ISO)": "2023-11-29T11:24:57Z", "First_Derivative_Mean_Motion": 0.00025355000000000006, "Second_Derivative_Mean_Motion": 0.0, "Inclination": 97.3873, "Right_Ascension_of_the_Ascending_Node": 226.8184, "Eccentricity": 0.0014559, "Argument_of_Perigee": 138.4503, "Mean_Anomaly": 221.7846, "Mean_Motion": 15.282887, "Revolution_Number_at_Epoch": 3539}}, {"id": "c4275a4c-da6f-42bf-a7cb-3d39977dde1a", "latitud": "4.58787", "longitud": "-45.3", "temperature": "28", "pressure": "1,009", "localTime": "Wed Nov 29 2023 13:26:47 GMT-0500 (hora est\u00e1ndar de Colombia)", "julianTime": "1701282407", "utcTime": "1:26:57 PM", "altitude": "475.33", "elevation": "-66.9", "TLE": {"Norad_Id": 56205, "International_Classification": "Unclassified", "International_Designation": "23054AD", "Epoch_Time_(ISO)": "2023-11-29T11:24:57Z", "First_Derivative_Mean_Motion": 0.00025355000000000006, "Second_Derivative_Mean_Motion": 0.0, "Inclination": 97.3873, "Right_Ascension_of_the_Ascending_Node": 226.8184, "Eccentricity": 0.0014559, "Argument_of_Perigee": 138.4503, "Mean_Anomaly": 221.7846, "Mean_Motion": 15.282887, "Revolution_Number_at_Epoch": 3539}}