FACSAT-2                
1 56205U 23054AD  23333.47566356  .00025355  00000+0  91787-3 0  9992
2 56205  97.3873 226.8184 0014559 138.4503 221.7846 15.28288700 35397
